#aP2004  6 28  0  0  0.00000000      96 ORBIT IGb00 HLM  IGS
## 1277  86400.00000000   900.00000000 53184 0.0000000000000
+   28     1  3  4  5  6  7  8  9 10 11 13 14 15 16 17 18 19
+         20 21 22 24 25 26 27 28 29 30 31  0  0  0  0  0  0
+          0  0  0  0  0  0  0  0  0  0  0  0  0  0  0  0  0
+          0  0  0  0  0  0  0  0  0  0  0  0  0  0  0  0  0
+          0  0  0  0  0  0  0  0  0  0  0  0  0  0  0  0  0
++         3  3  3  3  3  3  3  3  3  4  4  4  3  3  3  3  4
++         3  4  4  4  3  3  3  4  3  3  3  0  0  0  0  0  0
++         0  0  0  0  0  0  0  0  0  0  0  0  0  0  0  0  0
++         0  0  0  0  0  0  0  0  0  0  0  0  0  0  0  0  0
++         0  0  0  0  0  0  0  0  0  0  0  0  0  0  0  0  0
%c cc cc ccc ccc cccc cccc cccc cccc ccccc ccccc ccccc ccccc
%c cc cc ccc ccc cccc cccc cccc cccc ccccc ccccc ccccc ccccc
%f  0.0000000  0.000000000  0.00000000000  0.000000000000000
%f  0.0000000  0.000000000  0.00000000000  0.000000000000000
%i    0    0    0    0      0      0      0      0         0
%i    0    0    0    0      0      0      0      0         0
/* FINAL ORBIT COMBINATION FROM WEIGHTED AVERAGE OF:        
/* cod emr esa gfz jpl mit ngs sio                          
/* REFERENCED TO IGS TIME AND TO WEIGHTED MEAN POLE:        
/* CLK ANT Z-OFFSET (M): II/IIA 1.023; IIR 0.000            
*  2004  6 28 14  0  0.00000000
P  1   -825.478279  25066.276584   8855.347298    350.805364
P  3 -11604.338375  21289.233493  10469.575689     22.718671
P  4  26152.609610  -4664.035055  -2994.408670   -193.244598
P  5  -8787.804505 -20887.699381 -14122.581481     36.850361
P  6  -8750.623990 -18449.614674  17116.284047    187.131897
P  7  16038.911824  -4328.584942 -20275.723174    483.824573
P  8  24712.533412    938.252223   9924.067093     -2.991993
P  9   1851.869924 -16426.849210 -21166.391756    -51.516997
P 10   8696.450336 -12088.119937  21914.962892     46.343460
P 11     72.170348  17107.363661 -20300.246836    128.380144
P 13   9121.509514  15804.839538  19270.843149    -26.686754
P 14 -15437.409742   2198.301834 -21458.100260    -22.308041
P 15 -26317.268344   3861.827661   2203.439333    285.845033
P 16 -12683.163028   8823.337935  21685.803859      9.798795
P 17  11615.222266 -14836.775454  18591.789905    -66.116849
P 18 -19561.992507 -17939.278623  -2763.866671    -48.805918
P 19  -6509.788766  25709.247113  -1945.009410    -27.878923
P 20  10799.153736  21390.189670 -11533.783966   -148.154322
P 21 -19771.467785  -7300.608234  16378.156140     76.920813
P 22 -21052.826083  -9303.642626 -13076.032747     13.645338
P 24  21803.168997 -11941.071851   9760.124661     37.933883
P 25 -24714.799977   9728.745069    455.075291     69.817792
P 26   7982.724802 -24865.783155   2077.373114    135.965074
P 27  18536.875989   7383.795030  18255.447860    283.421940
P 28  21619.298629   8663.367767 -12847.289689     36.050894
P 29  10485.107771 -23252.972893   7496.031342    395.307988
P 30 -17893.555755 -19467.943379  -3294.237375    552.335016
P 31  10067.219896  17075.239814 -17912.089113    233.121008
*  2004  6 28 14 15  0.00000000
P  1  -1206.908646  25834.588644   6132.575652    350.808637
P  3 -11724.362068  19900.246571  12809.129941     22.719993
P  4  25740.040802  -4302.080897  -5770.992522   -193.256418
P  5  -7306.389878 -20008.409189 -16102.829911     36.851563
P  6  -8191.951013 -20207.491474  15276.126309    187.179984
P  7  15722.725905  -1895.447341 -20890.602472    483.809254
P  8  23522.814744   1474.242812  12368.992692     -2.992511
P  9   4040.141881 -17110.090218 -20248.974285    -51.519219
P 10  10552.691587 -10381.978077  21998.327715     46.342630
P 11  -2080.801647  17919.574388 -19462.629898    128.383217
P 13   8556.904895  17848.238254  17691.917878    -26.686249
P 14 -14944.459127   -238.375873 -21912.599822    -22.308319
P 15 -25945.907690   3549.296979   5015.529816    285.850310
P 16 -14459.889055   7157.126146  21181.790460      9.798301
P 17  13630.226449 -15058.558534  16885.855378    -66.132530
P 18 -19511.020218 -18211.886250     78.113924    -48.809386
P 19  -6770.507845  25711.147712    905.411130    -27.873944
P 20   9591.502618  20578.487106 -13859.433903   -148.150439
P 21 -17912.367747  -7954.136271  18080.405012     76.921280
P 22 -21868.291176 -10441.023911 -10686.631777     13.646970
P 24  22749.201866 -11986.102079   7111.170509     37.935885
P 25 -24692.610773   9394.520010  -2367.194319     69.818971
P 26   8118.613194 -24381.846795   4974.574759    135.978724
P 27  16648.137284   8225.578512  19656.658601    283.442079
P 28  22473.251202   9731.506546 -10458.518864     36.052052
P 29  10481.704795 -22257.499854  10151.530482    395.303377
P 30 -17318.893383 -19359.676545  -6039.817763    552.337772
P 31   9558.634234  18922.713715 -16188.685748    233.136098
*  2004  6 28 14 30  0.00000000
P  1  -1490.793519  26313.563917   3304.501309    350.808289
P  3 -11888.018201  18266.794042  14924.498831     22.722093
P  4  25058.770823  -3813.995171  -8450.090527   -193.268744
P  5  -5614.004689 -19084.515689 -17810.358045     36.852534
P  6  -7746.780792 -21772.558478  13174.958446    187.228050
P  7  15516.269546    597.852126 -21131.666561    483.794221
P  8  22112.027987   2162.227442  14602.390507     -2.993028
P  9   6084.012571 -17858.645439 -18992.989115    -51.520812
P 10  12488.401829  -8789.949417  21701.268135     46.342142
P 11  -4097.277389  18773.386395 -18289.251503    128.385434
P 13   8139.120745  19725.050392  15808.112562    -26.685828
P 14 -14581.100338  -2728.233155 -21988.547584    -22.309109
P 15 -25292.694460   3124.259287   7742.266194    285.853928
P 16 -16261.149251   5634.480701  20316.021600      9.797630
P 17  15432.481890 -15332.232909  14884.519390    -66.148592
P 18 -19234.693872 -18275.063090   2918.772966    -48.812450
P 19  -6963.746967  25412.554053   3740.330631    -27.869615
P 20   8147.950248  19676.564560 -15947.636406   -148.147057
P 21 -15921.230490  -8759.481766  19475.151972     76.921668
P 22 -22531.928317 -11344.667724  -8111.724122     13.647977
P 24  23403.435944 -11984.078143   4341.471098     37.938924
P 25 -24402.741588   8917.694075  -5148.524482     69.818947
P 26   8227.768054 -23579.976876   7782.313813    135.992412
P 27  14680.000865   9221.922286  20737.290999    283.462334
P 28  23165.186147  10573.546956  -7891.124030     36.052791
P 29  10493.464440 -20977.106812  12633.397735    395.298454
P 30 -16499.502559 -19096.758912  -8682.722518    552.340336
P 31   9159.553827  20589.334934 -14190.264392    233.151013
*  2004  6 28 14 45  0.00000000
P  1  -1712.608794  26485.623552    419.577434    350.809286
P  3 -12123.443011  16418.195264  16778.775949     22.725395
P  4  24135.369933  -3172.298358 -10986.310962   -193.281107
P  5  -3728.703590 -18154.215809 -19216.208743     36.853706
P  6  -7392.872830 -23110.377011  10848.118082    187.276030
P  7  15427.321010   3102.452808 -20994.970130    483.779248
P  8  20518.095599   3019.825196  16585.213680     -2.992613
P  9   7951.051484 -18640.570863 -17417.829062    -51.522995
P 10  14462.002894  -7340.816224  21029.789373     46.341893
P 11  -5947.613330  19637.473849 -16800.004056    128.388181
P 13   7849.030787  21393.226865  13652.128686    -26.685162
P 14 -14355.759018  -5221.327592 -21684.625890    -22.309657
P 15 -24381.352551   2556.468331  10336.839322    285.857096
P 16 -18043.669085   4275.252724  19103.226107      9.797058
P 17  16991.976702 -15622.561419  12621.169649    -66.164237
P 18 -18711.061951 -18159.146824   5709.935655    -48.816122
P 19  -7126.799204  24811.400807   6511.265034    -27.864964
P 20   6478.067930  18726.640861 -17762.813977   -148.143905
P 21 -13842.731491  -9720.339930  20537.624252     76.921841
P 22 -23005.665282 -12025.525281  -5396.222258     13.649492
P 24  23764.986014 -11895.932343   1497.821555     37.941511
P 25 -23867.710283   8270.084662  -7840.465626     69.819845
P 26   8349.605782 -22469.449920  10449.854742    136.006015
P 27  12675.857054  10368.236147  21479.296900    283.482697
P 28  23658.708445  11202.991037  -5189.388442     36.053711
P 29  10556.798030 -19433.702224  14899.837236    395.293808
P 30 -15428.541204 -18715.903736 -11178.353544    552.342412
P 31   8848.149098  22039.230022 -11949.588559    233.166264
EOF
